[{"OBJECT_NAME":"CFOSAT","OBJECT_ID":"2018-083A","EPOCH":"2026-03-09T23:32:27.859200","MEAN_MOTION":15.16355885,"ECCENTRICITY":0.000152,"INCLINATION":97.364,"RA_OF_ASC_NODE":76.4206,"ARG_OF_PERICENTER":123.6668,"MEAN_ANOMALY":236.471,"EPHEMERIS_TYPE":0,"CLASSIFICATION_TYPE":"U","NORAD_CAT_ID":43662,"ELEMENT_SET_NO":999,"REV_AT_EPOCH":40740,"BSTAR":0.00010107599,"MEAN_MOTION_DOT":1.896e-5,"MEAN_MOTION_DDOT":0},{"OBJECT_NAME":"STARLINK-6372","OBJECT_ID":"2023-099W","EPOCH":"2026-03-09T22:00:01.999584","MEAN_MOTION":15.12966089,"ECCENTRICITY":0.0001607,"INCLINATION":42.9994,"RA_OF_ASC_NODE":246.8863,"ARG_OF_PERICENTER":249.5126,"MEAN_ANOMALY":5.3747,"EPHEMERIS_TYPE":0,"CLASSIFICATION_TYPE":"U","NORAD_CAT_ID":57348,"ELEMENT_SET_NO":999,"REV_AT_EPOCH":577,"BSTAR":0.0069418476,"MEAN_MOTION_DOT":0.00126619,"MEAN_MOTION_DDOT":0}]
